FENGYUN 1C DEB          
1 31531U 99025BXW 17341.99172508  .00000394  00000-0  13136-3 0  9998
2 31531  98.7149  49.8059 0285590 191.3279 168.1382 14.22630533222283
